[
    {
        "Altitude(m)": 706857.1939199168,
        "Argument of Periapsis(deg)": 0.009112096949301655,
        "Eccentricity": 0.0,
        "Inclination(deg)": 45.0,
        "Latitude(deg)": 43.15113592235417,
        "Longitude(deg)": 108.20212361551114,
        "Mean Anomaly(deg)": 74.68107331798464,
        "RAAN(deg)": 139.99139844683344,
        "Satellite Name": "Constellation 1 620",
        "Satellite Number": 620,
        "Semi-Major Axis(m)": 7083131.272910544,
        "Time(s)": 152
    },
    {
        "Altitude(m)": 706860.6589901983,
        "Argument of Periapsis(deg)": 0.009172044955547059,
        "Eccentricity": 0.0,
        "Inclination(deg)": 45.0,
        "Latitude(deg)": 43.16665630908663,
        "Longitude(deg)": 108.27831306085233,
        "Mean Anomaly(deg)": 74.74177445823454,
        "RAAN(deg)": 139.9913418576679,
        "Satellite Name": "Constellation 1 620",
        "Satellite Number": 620,
        "Semi-Major Axis(m)": 7083131.272910544,
        "Time(s)": 153
    },
    {
        "Altitude(m)": 706864.1120521459,
        "Argument of Periapsis(deg)": 0.009231992961792466,
        "Eccentricity": 0.0,
        "Inclination(deg)": 45.0,
        "Latitude(deg)": 43.18212029299706,
        "Longitude(deg)": 108.3545430719316,
        "Mean Anomaly(deg)": 74.80247559848446,
        "RAAN(deg)": 139.99128526850228,
        "Satellite Name": "Constellation 1 620",
        "Satellite Number": 620,
        "Semi-Major Axis(m)": 7083131.272910544,
        "Time(s)": 154
    },
    {
        "Altitude(m)": 706867.5530853458,
        "Argument of Periapsis(deg)": 0.009291940968037872,
        "Eccentricity": 0.0,
        "Inclination(deg)": 45.0,
        "Latitude(deg)": 43.19752781569416,
        "Longitude(deg)": 108.430813543327,
        "Mean Anomaly(deg)": 74.86317673873434,
        "RAAN(deg)": 139.99122867933673,
        "Satellite Name": "Constellation 1 620",
        "Satellite Number": 620,
        "Semi-Major Axis(m)": 7083131.272910544,
        "Time(s)": 155
    },
    {
        "Altitude(m)": 706870.9820694664,
        "Argument of Periapsis(deg)": 0.009351888974283276,
        "Eccentricity": 0.0,
        "Inclination(deg)": 45.0,
        "Latitude(deg)": 43.212878818925205,
        "Longitude(deg)": 108.50712420095691,
        "Mean Anomaly(deg)": 74.92387787898426,
        "RAAN(deg)": 139.99117209017115,
        "Satellite Name": "Constellation 1 620",
        "Satellite Number": 620,
        "Semi-Major Axis(m)": 7083131.272910544,
        "Time(s)": 156
    },
    {
        "Altitude(m)": 706874.3989842501,
        "Argument of Periapsis(deg)": 0.00941183698052868,
        "Eccentricity": 0.0,
        "Inclination(deg)": 45.0,
        "Latitude(deg)": 43.22817324457652,
        "Longitude(deg)": 108.58347527446935,
        "Mean Anomaly(deg)": 74.98457901923415,
        "RAAN(deg)": 139.9911155010056,
        "Satellite Name": "Constellation 1 620",
        "Satellite Number": 620,
        "Semi-Major Axis(m)": 7083131.272910544,
        "Time(s)": 157
    },
    {
        "Altitude(m)": 706877.803809512,
        "Argument of Periapsis(deg)": 0.009471784986774088,
        "Eccentricity": 0.0,
        "Inclination(deg)": 45.0,
        "Latitude(deg)": 43.24341103467495,
        "Longitude(deg)": 108.65986648865875,
        "Mean Anomaly(deg)": 75.04528015948407,
        "RAAN(deg)": 139.99105891184004,
        "Satellite Name": "Constellation 1 620",
        "Satellite Number": 620,
        "Semi-Major Axis(m)": 7083131.272910544,
        "Time(s)": 158
    },
    {
        "Altitude(m)": 706881.1965251339,
        "Argument of Periapsis(deg)": 0.009531732993019492,
        "Eccentricity": 0.0,
        "Inclination(deg)": 45.0,
        "Latitude(deg)": 43.258592131388426,
        "Longitude(deg)": 108.73629773585527,
        "Mean Anomaly(deg)": 75.10598129973391,
        "RAAN(deg)": 139.99100232267443,
        "Satellite Name": "Constellation 1 620",
        "Satellite Number": 620,
        "Semi-Major Axis(m)": 7083131.272910544,
        "Time(s)": 159
    },
    {
        "Altitude(m)": 706884.5771110791,
        "Argument of Periapsis(deg)": 0.009591680999264898,
        "Eccentricity": 0.0,
        "Inclination(deg)": 45.0,
        "Latitude(deg)": 43.27371647702703,
        "Longitude(deg)": 108.8127689078282,
        "Mean Anomaly(deg)": 75.16668243998383,
        "RAAN(deg)": 139.99094573350888,
        "Satellite Name": "Constellation 1 620",
        "Satellite Number": 620,
        "Semi-Major Axis(m)": 7083131.272910544,
        "Time(s)": 160
    },
    {
        "Altitude(m)": 706887.9455473878,
        "Argument of Periapsis(deg)": 0.009651629005510304,
        "Eccentricity": 0.0,
        "Inclination(deg)": 45.0,
        "Latitude(deg)": 43.288784014043834,
        "Longitude(deg)": 108.88927989578583,
        "Mean Anomaly(deg)": 75.22738358023372,
        "RAAN(deg)": 139.9908891443433,
        "Satellite Name": "Constellation 1 620",
        "Satellite Number": 620,
        "Semi-Major Axis(m)": 7083131.272910544,
        "Time(s)": 161
    },
    {
        "Altitude(m)": 706891.3018141609,
        "Argument of Periapsis(deg)": 0.00971157701175571,
        "Eccentricity": 0.0,
        "Inclination(deg)": 45.0,
        "Latitude(deg)": 43.303794685035854,
        "Longitude(deg)": 108.96583059037647,
        "Mean Anomaly(deg)": 75.28808472048365,
        "RAAN(deg)": 139.99083255517775,
        "Satellite Name": "Constellation 1 620",
        "Satellite Number": 620,
        "Semi-Major Axis(m)": 7083131.272910544,
        "Time(s)": 162
    },
    {
        "Altitude(m)": 706894.6458915898,
        "Argument of Periapsis(deg)": 0.009771525018001118,
        "Eccentricity": 0.0,
        "Inclination(deg)": 45.0,
        "Latitude(deg)": 43.31874843274503,
        "Longitude(deg)": 109.04242071359108,
        "Mean Anomaly(deg)": 75.34878586073354,
        "RAAN(deg)": 139.99077596601217,
        "Satellite Name": "Constellation 1 620",
        "Satellite Number": 620,
        "Semi-Major Axis(m)": 7083131.272910544,
        "Time(s)": 163
    },
    {
        "Altitude(m)": 706897.9777599251,
        "Argument of Periapsis(deg)": 0.00983147302424652,
        "Eccentricity": 0.0,
        "Inclination(deg)": 45.0,
        "Latitude(deg)": 43.333645200058854,
        "Longitude(deg)": 109.11905049115303,
        "Mean Anomaly(deg)": 75.40948700098342,
        "RAAN(deg)": 139.99071937684658,
        "Satellite Name": "Constellation 1 620",
        "Satellite Number": 620,
        "Semi-Major Axis(m)": 7083131.272910544,
        "Time(s)": 164
    },
    {
        "Altitude(m)": 706901.2973995013,
        "Argument of Periapsis(deg)": 0.009891421030491928,
        "Eccentricity": 0.0,
        "Inclination(deg)": 45.0,
        "Latitude(deg)": 43.34848493001174,
        "Longitude(deg)": 109.19571964393513,
        "Mean Anomaly(deg)": 75.47018814123334,
        "RAAN(deg)": 139.990662787681,
        "Satellite Name": "Constellation 1 620",
        "Satellite Number": 620,
        "Semi-Major Axis(m)": 7083131.272910544,
        "Time(s)": 165
    },
    {
        "Altitude(m)": 706904.6047907225,
        "Argument of Periapsis(deg)": 0.009951369036737332,
        "Eccentricity": 0.0,
        "Inclination(deg)": 45.0,
        "Latitude(deg)": 43.363267565785655,
        "Longitude(deg)": 109.27242806034866,
        "Mean Anomaly(deg)": 75.53088928148323,
        "RAAN(deg)": 139.99060619851545,
        "Satellite Name": "Constellation 1 620",
        "Satellite Number": 620,
        "Semi-Major Axis(m)": 7083131.272910544,
        "Time(s)": 166
    },
    {
        "Altitude(m)": 706907.899914071,
        "Argument of Periapsis(deg)": 0.010011317042982738,
        "Eccentricity": 0.0,
        "Inclination(deg)": 45.0,
        "Latitude(deg)": 43.37799305071104,
        "Longitude(deg)": 109.34917562824704,
        "Mean Anomaly(deg)": 75.59159042173316,
        "RAAN(deg)": 139.9905496093499,
        "Satellite Name": "Constellation 1 620",
        "Satellite Number": 620,
        "Semi-Major Axis(m)": 7083131.272910544,
        "Time(s)": 167
    },
    {
        "Altitude(m)": 706911.1827500957,
        "Argument of Periapsis(deg)": 0.010071265049228144,
        "Eccentricity": 0.0,
        "Inclination(deg)": 45.0,
        "Latitude(deg)": 43.39266132826783,
        "Longitude(deg)": 109.425962234926,
        "Mean Anomaly(deg)": 75.65229156198302,
        "RAAN(deg)": 139.99049302018432,
        "Satellite Name": "Constellation 1 620",
        "Satellite Number": 620,
        "Semi-Major Axis(m)": 7083131.272910544,
        "Time(s)": 168
    },
    {
        "Altitude(m)": 706914.4532794371,
        "Argument of Periapsis(deg)": 0.01013121305547355,
        "Eccentricity": 0.0,
        "Inclination(deg)": 45.0,
        "Latitude(deg)": 43.40727234208627,
        "Longitude(deg)": 109.50278776712457,
        "Mean Anomaly(deg)": 75.71299270223294,
        "RAAN(deg)": 139.99043643101876,
        "Satellite Name": "Constellation 1 620",
        "Satellite Number": 620,
        "Semi-Major Axis(m)": 7083131.272910544,
        "Time(s)": 169
    },
    {
        "Altitude(m)": 706917.7114827879,
        "Argument of Periapsis(deg)": 0.010191161061718957,
        "Eccentricity": 0.0,
        "Inclination(deg)": 45.0,
        "Latitude(deg)": 43.42182603594792,
        "Longitude(deg)": 109.57965211102494,
        "Mean Anomaly(deg)": 75.77369384248281,
        "RAAN(deg)": 139.99037984185316,
        "Satellite Name": "Constellation 1 620",
        "Satellite Number": 620,
        "Semi-Major Axis(m)": 7083131.272910544,
        "Time(s)": 170
    }
]